STARLINK-5765           
1 57147U 23090AY  25004.56671122  .00001903  00000+0  15590-3 0  9994
2 57147  43.0019  73.2299 0001335 256.9649 103.1044 15.02537102 84874
STARLINK-5788           
1 57148U 23090AZ  25004.49356698  .00000984  00000+0  87894-4 0  9990
2 57148  43.0060  73.5417 0001079 275.3948  84.6772 15.02533669 85818
STARLINK-5778           
1 57149U 23090BA  25004.51407004  .00004088  00000+0  31763-3 0  9994
2 57149  43.0005  47.6504 0001027 274.3917  85.6808 15.02518245 86304
STARLINK-5780           
1 57150U 23090BB  25004.57447857 -.00002207  00000+0 -14830-3 0  9991
2 57150  43.0036  73.2914 0001121 264.9784  95.0931 15.02548080 84874
STARLINK-5776           
1 57151U 23090BC  25004.24098324 -.00000866  00000+0 -49079-4 0  9990
2 57151  42.9990  75.0874 0001732 257.4510 102.6139 15.02531376 85965
STARLINK-6164           
1 57152U 23090BD  25004.24431317 -.00000246  00000+0 -31149-5 0  9996
2 57152  43.0032  75.1140 0001347 259.1271 100.9420 15.02530930 85966
STARLINK-5879           
1 57153U 23090BE  25004.53379225  .00002678  00000+0  21330-3 0  9996
2 57153  43.0081  60.8228 0000507 267.1034  92.9750 15.02523962 85651
STARLINK-6106           
1 57154U 23090BF  25004.56781874  .00000822  00000+0  75926-4 0  9997
2 57154  42.9988  73.2352 0001660 271.3540  88.7113 15.02534977 84879
STARLINK-6108           
1 57155U 23090BG  25004.68634043  .00000308  00000+0  37831-4 0  9998
2 57155  43.0047  72.4069 0000304 286.7564  73.3245 15.02530355 84898
STARLINK-6137           
1 57156U 23090BH  25004.55672008  .00002745  00000+0  21825-3 0  9990
2 57156  43.0027  73.1575 0001393 257.8188 102.2498 15.02525196 84874
STARLINK-5525           
1 57218U 23094A   25004.56402660 -.00000463  00000+0 -19174-4 0  9991
2 57218  43.0012 202.4865 0001233 272.0555  88.0146 15.02534878 82568
STARLINK-5520           
1 57219U 23094B   25004.82661173 -.00004478  00000+0 -31653-3 0  9992
2 57219  43.0011 201.0170 0001010 283.7791  76.2939 15.02552226 82786
STARLINK-5880           
1 57220U 23094C   25004.81107216  .00001790  00000+0  14750-3 0  9997
2 57220  43.0038 200.8966 0001548 276.5959  83.4707 15.02543826 82788
STARLINK-5875           
1 57221U 23094D   25004.82439324 -.00001678  00000+0 -10915-3 0  9993
2 57221  43.0001 200.9997 0001232 270.1840  89.8862 15.02544742 82783
STARLINK-5870           
1 57222U 23094E   25004.81772641 -.00002704  00000+0 -18506-3 0  9990
2 57222  43.0015 200.9467 0001034 267.7168  92.3556 15.02555905 82845
STARLINK-5519           
1 57223U 23094F   25004.82107569 -.00001479  00000+0 -94459-4 0  9993
2 57223  43.0021 200.9733 0001326 265.5885  94.4806 15.02518029 82785
STARLINK-5983           
1 57224U 23094G   25004.61496878 -.00010121  00000+0 -73510-3 0  9993
2 57224  43.0009 202.0083 0001728 283.4929  76.5721 15.02542930 82579
STARLINK-6294           
1 57225U 23094H   25004.55736329  .00000885  00000+0  80589-4 0  9994
2 57225  43.0017 202.4305 0001076 270.5911  89.4808 15.02534122 82566
STARLINK-6350           
1 57226U 23094J   25004.80331331 -.00002124  00000+0 -14221-3 0  9996
2 57226  42.9973 200.8347 0001068 255.4177 104.6547 15.02534133 82787
STARLINK-5996           
1 57227U 23094K   25004.80775578  .00002355  00000+0  18937-3 0  9994
2 57227  43.0009 200.8730 0001479 276.6447  83.4227 15.02535116 82788
STARLINK-6230           
1 57228U 23094L   25004.79996793  .00000762  00000+0  71501-4 0  9994
2 57228  43.0044 200.8100 0001142 268.0583  92.0128 15.02532720 82786
STARLINK-6233           
1 57229U 23094M   25004.27481836  .00000286  00000+0  36233-4 0  9999
2 57229  43.0020 203.7529 0001322 273.0397  87.0294 15.02530157 82529
STARLINK-6250           
1 57230U 23094N   25004.59499729  .00004162  00000+0  32304-3 0  9997
2 57230  43.0012 201.8545 0001127 266.5295  93.5419 15.02533447 82757
STARLINK-5840           
1 57231U 23094P   25004.83759456 -.00000499  00000+0 -21869-4 0  9997
2 57231  43.0009 200.2335 0001199 271.8112  88.2592 15.02528274 82799
STARLINK-5872           
1 57232U 23094Q   25004.57056387  .00000774  00000+0  72341-4 0  9997
2 57232  43.0030 201.6649 0001152 278.7242  81.3469 15.02531748 83233
STARLINK-5866           
1 57233U 23094R   25004.84426227  .00002499  00000+0  20009-3 0  9991
2 57233  43.0019 200.2844 0001335 271.1006  88.9683 15.02522201 82796
STARLINK-6368           
1 57234U 23094S   25004.83426307  .00000247  00000+0  33343-4 0  9995
2 57234  43.0018 200.2086 0001465 278.9339  81.1338 15.02531276 82796
STARLINK-6360           
1 57235U 23094T   25004.84648054  .00002029  00000+0  16529-3 0  9998
2 57235  43.0014 200.3013 0001586 270.7716  89.2945 15.02528156 82793
STARLINK-6315           
1 57236U 23094U   25004.84131152  .00002069  00000+0  16826-3 0  9999
2 57236  43.0009 188.1218 0001439 259.3572 100.7108 15.02522254 82937
STARLINK-6365           
1 57237U 23094V   25004.84093589  .00002335  00000+0  18797-3 0  9996
2 57237  43.0016 200.2593 0001783 261.9426  98.1214 15.02520043 82793
STARLINK-6334           
1 57238U 23094W   25004.23522906 -.00005922  00000+0 -42347-3 0  9995
2 57238  43.0018 191.3095 0001263 262.5964  97.4734 15.02555840 82668
STARLINK-6330           
1 57239U 23094X   25004.83317519  .00000551  00000+0  55913-4 0  9999
2 57239  43.0027 200.1990 0002035 276.4515  83.6095 15.02510137 82797
STARLINK-6351           
1 57240U 23094Y   25004.22633882 -.00007385  00000+0 -53238-3 0  9999
2 57240  43.0008 191.2419 0001813 256.1205 103.9436 15.02519005 82662
STARLINK-6349           
1 57241U 23094Z   25004.77147560 -.00000406  00000+0 -15011-4 0  9998
2 57241  43.0019 188.4559 0001124 276.1295  83.9420 15.02531850 82925
STARLINK-6306           
1 57242U 23094AA  25004.56872417  .00000444  00000+0  47965-4 0  9995
2 57242  43.0000 189.5133 0001033 279.7568  80.3157 15.02527774 82712
STARLINK-6346           
1 57243U 23094AB  25004.83685354 -.00000114  00000+0  66155-5 0  9996
2 57243  43.0019 188.0867 0001333 267.5330  92.5360 15.02534002 82933
STARLINK-5610           
1 57244U 23094AC  25004.56096600 -.00004663  00000+0 -33028-3 0  9992
2 57244  43.0021 189.4492 0001677 279.7284  80.3369 15.02542781 82926
STARLINK-5587           
1 57245U 23094AD  25004.76373109  .00000504  00000+0  52375-4 0  9992
2 57245  43.0030 188.3941 0001145 284.2919  75.7797 15.02526146 82920
STARLINK-5049           
1 57246U 23094AE  25004.53542366 -.00000017  00000+0  13791-4 0  9990
2 57246  43.0008 189.2603 0001060 268.7993  91.2728 15.02535129 82711
STARLINK-5039           
1 57247U 23094AF  25004.55762325  .00000531  00000+0  54401-4 0  9995
2 57247  43.0017 189.4270 0001195 281.1692  78.9016 15.02527983 82898
STARLINK-5514           
1 57248U 23094AG  25004.68726554  .00002641  00000+0  21055-3 0  9996
2 57248  43.0023 188.6811 0001121 274.4487  85.6228 15.02521429 82916
STARLINK-5517           
1 57249U 23094AH  25004.55208597  .00002027  00000+0  16517-3 0  9990
2 57249  43.0020 189.3214 0001279 281.5037  78.5662 15.02515200 82893
STARLINK-5488           
1 57250U 23094AJ  25004.54210407  .00002194  00000+0  17745-3 0  9993
2 57250  43.0017 189.3113 0001465 274.2877  85.7798 15.02537742 82713
STARLINK-5513           
1 57251U 23094AK  25004.54876415  .00001851  00000+0  15214-3 0  9999
2 57251  43.0014 189.3616 0001252 276.8729  83.1971 15.02516571 82719
STARLINK-5511           
1 57252U 23094AL  25004.80024099  .00001351  00000+0  11512-3 0  9994
2 57252  43.0006 187.8088 0001390 283.4482  76.6205 15.02525266 82932
STARLINK-5516           
1 57253U 23094AM  25004.81352592  .00003393  00000+0  26596-3 0  9994
2 57253  43.0014 187.9064 0001631 282.1858  77.8801 15.02555472 82935
STARLINK-5490           
1 57254U 23094AN  25004.79469652  .00004157  00000+0  32268-3 0  9990
2 57254  43.0007 187.7661 0001399 278.9301  81.1383 15.02524846 82930
STARLINK-5481           
1 57255U 23094AP  25004.79689157  .00001300  00000+0  11129-3 0  9995
2 57255  43.0010 187.7792 0001164 277.9736  82.0974 15.02536342 82931
STARLINK-5512           
1 57256U 23094AQ  25004.77692287  .00001663  00000+0  13815-3 0  9998
2 57256  43.0013 187.6510 0001330 259.9320 100.1372 15.02537595 82931
STARLINK-5503           
1 57257U 23094AR  25004.53765948  .00002199  00000+0  17785-3 0  9993
2 57257  42.9986 189.2784 0001465 263.0744  96.9931 15.02529400 82899
STARLINK-5476           
1 57258U 23094AS  25004.79134560  .00000323  00000+0  39003-4 0  9997
2 57258  43.0015 187.7354 0001182 277.4330  82.6378 15.02530638 82934
STARLINK-5026           
1 57260U 23094AU  25004.78468788  .00003152  00000+0  24832-3 0  9997
2 57260  43.0011 187.6900 0001155 278.0560  82.0151 15.02535560 82933
STARLINK-5485           
1 57261U 23094AV  25004.58501427  .00004096  00000+0  31831-3 0  9999
2 57261  43.0024 201.7797 0001308 254.2462 105.8236 15.02515599 82575
STARLINK-5504           
1 57262U 23094AW  25004.59414871 -.00003042  00000+0 -21018-3 0  9995
2 57262  43.0011 188.8419 0001336 272.1644  87.9045 15.02536310 82729
STARLINK-5509           
1 57263U 23094AX  25004.84978300  .00002478  00000+0  19842-3 0  9998
2 57263  43.0027 200.3256 0001174 272.7905  87.2803 15.02545382 82793
STARLINK-5858           
1 57264U 23094AY  25004.51434677 -.00004130  00000+0 -29071-3 0  9991
2 57264  43.0047 189.1035 0001791 269.1023  90.9614 15.02546843 82717
STARLINK-5890           
1 57265U 23094AZ  25004.77802521  .00001159  00000+0  10084-3 0  9997
2 57265  43.0018 187.6405 0001152 270.1852  89.8859 15.02535320 82933
STARLINK-30198          
1 57290U 23096A   25004.51333766  .00005099  00000+0  39232-3 0  9992
2 57290  43.0044  35.5730 0001239 241.8850 118.1867 15.02532707 81953
STARLINK-30239          
1 57291U 23096B   25004.77591032  .00001491  00000+0  12545-3 0  9993
2 57291  43.0056  34.1078 0001428 264.5110  95.5569 15.02533097 81992
